[{"OBJECT_NAME":"STARLINK-31307","OBJECT_ID":"2024-041R","EPOCH":"2026-03-09T22:50:19.570560","MEAN_MOTION":15.27570904,"ECCENTRICITY":0.00019528,"INCLINATION":43.0068,"RA_OF_ASC_NODE":309.0515,"ARG_OF_PERICENTER":269.184,"MEAN_ANOMALY":90.8788,"EPHEMERIS_TYPE":0,"CLASSIFICATION_TYPE":"U","NORAD_CAT_ID":59089,"ELEMENT_SET_NO":999,"REV_AT_EPOCH":11436,"BSTAR":-4.218454e-6,"MEAN_MOTION_DOT":-3.79e-6,"MEAN_MOTION_DDOT":0},{"OBJECT_NAME":"GEOSCAN 2 (RS92S2)","OBJECT_ID":"2025-155Q","EPOCH":"2026-03-09T23:01:48.939744","MEAN_MOTION":15.28709337,"ECCENTRICITY":0.00085277,"INCLINATION":97.4463,"RA_OF_ASC_NODE":37.5259,"ARG_OF_PERICENTER":140.9505,"MEAN_ANOMALY":219.2352,"EPHEMERIS_TYPE":0,"CLASSIFICATION_TYPE":"U","NORAD_CAT_ID":64890,"ELEMENT_SET_NO":999,"REV_AT_EPOCH":6561,"BSTAR":0.00051551761,"MEAN_MOTION_DOT":0.00014341,"MEAN_MOTION_DDOT":0}]
